start=new Date('2023-01-11T00:00:00.000Z').valueOf();
sats=[{"PERIOD":"95.437","GP_ID":"222722248","PERIAPSIS":"538.330","FILE":"3739267","OBJECT_TYPE":"PAYLOAD","ELEMENT_SET_NO":"999","TIME_SYSTEM":"UTC","TLE_LINE1":"1 52882U 22062BE  23010.80939439 -.00001515  00000-0 -77050-4 0  9995","ARG_OF_PERICENTER":"53.3760","COUNTRY_CODE":"US","CLASSIFICATION_TYPE":"U","LAUNCH_DATE":"2022-06-17","SEMIMAJOR_AXIS":"6917.841","OBJECT_ID":"2022-062BE","APOAPSIS":"541.082","OBJECT_NAME":"STARLINK-4181","MEAN_MOTION_DOT":"-0.00001515","EPHEMERIS_TYPE":"0","SITE":"AFETR","MEAN_MOTION":"15.08852865","REV_AT_EPOCH":"3187","NORAD_CAT_ID":"52882","MEAN_ELEMENT_THEORY":"SGP4","REF_FRAME":"TEME","TLE_LINE2":"2 52882  53.2177 154.0929 0001989  53.3760 306.7415 15.08852865 31876","MEAN_ANOMALY":"306.7415","EPOCH":"2023-01-10T19:25:31.675296","RCS_SIZE":"LARGE","BSTAR":"-0.00007705000000","DECAY_DATE":null,"CENTER_NAME":"EARTH","MEAN_MOTION_DDOT":"0.0000000000000","RA_OF_ASC_NODE":"154.0929","INCLINATION":"53.2177","ECCENTRICITY":"0.00019890"},{"TIME_SYSTEM":"UTC","OBJECT_TYPE":"PAYLOAD","ELEMENT_SET_NO":"999","FILE":"3739267","PERIAPSIS":"538.393","GP_ID":"222723465","PERIOD":"95.437","SEMIMAJOR_AXIS":"6917.875","OBJECT_ID":"2022-076A","OBJECT_NAME":"STARLINK-4260","APOAPSIS":"541.087","CLASSIFICATION_TYPE":"U","COUNTRY_CODE":"US","LAUNCH_DATE":"2022-07-07","TLE_LINE1":"1 52986U 22076A   23010.74318046  .00002024  00000-0  14525-3 0  9994","ARG_OF_PERICENTER":"58.5727","MEAN_ANOMALY":"301.5456","RCS_SIZE":"LARGE","EPOCH":"2023-01-10T17:50:10.791744","TLE_LINE2":"2 52986  53.2126 234.3920 0001947  58.5727 301.5456 15.08841696 28630","REF_FRAME":"TEME","NORAD_CAT_ID":"52986","MEAN_ELEMENT_THEORY":"SGP4","REV_AT_EPOCH":"2863","MEAN_MOTION":"15.08841696","EPHEMERIS_TYPE":"0","MEAN_MOTION_DOT":"0.00002024","SITE":"AFETR","INCLINATION":"53.2126","ECCENTRICITY":"0.00019470","RA_OF_ASC_NODE":"234.3920","CENTER_NAME":"EARTH","MEAN_MOTION_DDOT":"0.0000000000000","DECAY_DATE":null,"BSTAR":"0.00014525000000"},{"ARG_OF_PERICENTER":"76.4699","TLE_LINE1":"1 52987U 22076B   23010.65027930  .00001335  00000-0  10198-3 0  9990","LAUNCH_DATE":"2022-07-07","COUNTRY_CODE":"US","CLASSIFICATION_TYPE":"U","APOAPSIS":"540.473","OBJECT_NAME":"STARLINK-4259","OBJECT_ID":"2022-076B","SEMIMAJOR_AXIS":"6917.906","GP_ID":"222723472","PERIOD":"95.438","FILE":"3739267","PERIAPSIS":"539.070","OBJECT_TYPE":"PAYLOAD","ELEMENT_SET_NO":"999","TIME_SYSTEM":"UTC","DECAY_DATE":null,"BSTAR":"0.00010198000000","MEAN_MOTION_DDOT":"0.0000000000000","CENTER_NAME":"EARTH","ECCENTRICITY":"0.00010140","INCLINATION":"53.2149","RA_OF_ASC_NODE":"244.8130","MEAN_MOTION":"15.08831596","SITE":"AFETR","MEAN_MOTION_DOT":"0.00001335","EPHEMERIS_TYPE":"0","NORAD_CAT_ID":"52987","MEAN_ELEMENT_THEORY":"SGP4","REV_AT_EPOCH":"2848","RCS_SIZE":"LARGE","EPOCH":"2023-01-10T15:36:24.131520","MEAN_ANOMALY":"283.6406","REF_FRAME":"TEME","TLE_LINE2":"2 52987  53.2149 244.8130 0001014  76.4699 283.6406 15.08831596 28483"},{"OBJECT_ID":"2022-076C","SEMIMAJOR_AXIS":"6917.866","APOAPSIS":"541.508","OBJECT_NAME":"STARLINK-4291","CLASSIFICATION_TYPE":"U","COUNTRY_CODE":"US","LAUNCH_DATE":"2022-07-07","TLE_LINE1":"1 52988U 22076C   23010.34205889  .00005058  00000-0  33565-3 0  9997","ARG_OF_PERICENTER":"28.2299","TIME_SYSTEM":"UTC","OBJECT_TYPE":"PAYLOAD","ELEMENT_SET_NO":"999","FILE":"3739038","PERIAPSIS":"537.955","GP_ID":"222664516","PERIOD":"95.437","INCLINATION":"53.2130","ECCENTRICITY":"0.00025680","RA_OF_ASC_NODE":"236.2015","CENTER_NAME":"EARTH","MEAN_MOTION_DDOT":"0.0000000000000","DECAY_DATE":null,"BSTAR":"0.00033565000000","MEAN_ANOMALY":"331.8832","RCS_SIZE":"LARGE","EPOCH":"2023-01-10T08:12:33.888096","REF_FRAME":"TEME","TLE_LINE2":"2 52988  53.2130 236.2015 0002568  28.2299 331.8832 15.08844615 28572","NORAD_CAT_ID":"52988","MEAN_ELEMENT_THEORY":"SGP4","REV_AT_EPOCH":"2857","MEAN_MOTION":"15.08844615","EPHEMERIS_TYPE":"0","MEAN_MOTION_DOT":"0.00005058","SITE":"AFETR"},{"TIME_SYSTEM":"UTC","OBJECT_TYPE":"PAYLOAD","ELEMENT_SET_NO":"999","PERIAPSIS":"537.586","FILE":"3739038","GP_ID":"222665258","PERIOD":"95.438","APOAPSIS":"541.905","OBJECT_NAME":"STARLINK-4293","SEMIMAJOR_AXIS":"6917.881","OBJECT_ID":"2022-076D","LAUNCH_DATE":"2022-07-07","COUNTRY_CODE":"US","CLASSIFICATION_TYPE":"U","ARG_OF_PERICENTER":"25.1770","TLE_LINE1":"1 52989U 22076D   23010.38160983  .00000075  00000-0  22870-4 0  9999","RCS_SIZE":"LARGE","EPOCH":"2023-01-10T09:09:31.089312","MEAN_ANOMALY":"334.9374","REF_FRAME":"TEME","TLE_LINE2":"2 52989  53.2133 246.0263 0003122  25.1770 334.9374 15.08839958 28442","NORAD_CAT_ID":"52989","MEAN_ELEMENT_THEORY":"SGP4","REV_AT_EPOCH":"2844","MEAN_MOTION":"15.08839958","SITE":"AFETR","EPHEMERIS_TYPE":"0","MEAN_MOTION_DOT":"0.00000075","ECCENTRICITY":"0.00031220","INCLINATION":"53.2133","RA_OF_ASC_NODE":"246.0263","MEAN_MOTION_DDOT":"0.0000000000000","CENTER_NAME":"EARTH","DECAY_DATE":null,"BSTAR":"0.00002287000000"},{"DECAY_DATE":null,"BSTAR":"0.00000479690000","ECCENTRICITY":"0.00019500","INCLINATION":"53.2135","RA_OF_ASC_NODE":"244.5521","MEAN_MOTION_DDOT":"0.0000000000000","CENTER_NAME":"EARTH","NORAD_CAT_ID":"52990","MEAN_ELEMENT_THEORY":"SGP4","REV_AT_EPOCH":"2849","MEAN_MOTION":"15.08830564","SITE":"AFETR","MEAN_MOTION_DOT":"-0.00000212","EPHEMERIS_TYPE":"0","RCS_SIZE":"LARGE","EPOCH":"2023-01-10T17:01:10.879680","MEAN_ANOMALY":"292.1685","TLE_LINE2":"2 52990  53.2135 244.5521 0001950  67.9514 292.1685 15.08830564 28492","REF_FRAME":"TEME","LAUNCH_DATE":"2022-07-07","COUNTRY_CODE":"US","CLASSIFICATION_TYPE":"U","ARG_OF_PERICENTER":"67.9514","TLE_LINE1":"1 52990U 22076E   23010.70915370 -.00000212  00000-0  47969-5 0  9996","APOAPSIS":"541.123","OBJECT_NAME":"STARLINK-4286","OBJECT_ID":"2022-076E","SEMIMAJOR_AXIS":"6917.909","FILE":"3739267","PERIAPSIS":"538.425","GP_ID":"222723003","PERIOD":"95.438","TIME_SYSTEM":"UTC","OBJECT_TYPE":"PAYLOAD","ELEMENT_SET_NO":"999"},{"ELEMENT_SET_NO":"999","OBJECT_TYPE":"PAYLOAD","TIME_SYSTEM":"UTC","GP_ID":"222723010","PERIOD":"95.437","PERIAPSIS":"538.417","FILE":"3739267","OBJECT_ID":"2022-076F","SEMIMAJOR_AXIS":"6917.863","OBJECT_NAME":"STARLINK-4285","APOAPSIS":"541.040","TLE_LINE1":"1 52991U 22076F   23010.77168523  .00005933  00000-0  39049-3 0  9996","ARG_OF_PERICENTER":"21.3249","COUNTRY_CODE":"US","CLASSIFICATION_TYPE":"U","LAUNCH_DATE":"2022-07-07","MEAN_ANOMALY":"338.7822","EPOCH":"2023-01-10T18:31:13.603872","RCS_SIZE":"LARGE","TLE_LINE2":"2 52991  53.2152 244.2694 0001896  21.3249 338.7822 15.08845601 28508","REF_FRAME":"TEME","MEAN_MOTION":"15.08845601","MEAN_MOTION_DOT":"0.00005933","EPHEMERIS_TYPE":"0","SITE":"AFETR","NORAD_CAT_ID":"52991","MEAN_ELEMENT_THEORY":"SGP4","REV_AT_EPOCH":"2850","CENTER_NAME":"EARTH","MEAN_MOTION_DDOT":"0.0000000000000","INCLINATION":"53.2152","ECCENTRICITY":"0.00018960","RA_OF_ASC_NODE":"244.2694","DECAY_DATE":null,"BSTAR":"0.00039049000000"},{"SEMIMAJOR_AXIS":"6917.874","OBJECT_ID":"2022-076G","APOAPSIS":"541.428","OBJECT_NAME":"STARLINK-4269","CLASSIFICATION_TYPE":"U","COUNTRY_CODE":"US","LAUNCH_DATE":"2022-07-07","TLE_LINE1":"1 52992U 22076G   23010.37058164  .00002269  00000-0  16063-3 0  9992","ARG_OF_PERICENTER":"51.6955","TIME_SYSTEM":"UTC","ELEMENT_SET_NO":"999","OBJECT_TYPE":"PAYLOAD","PERIAPSIS":"538.051","FILE":"3739097","GP_ID":"222694894","PERIOD":"95.437","INCLINATION":"53.2124","ECCENTRICITY":"0.00024410","RA_OF_ASC_NODE":"246.0736","CENTER_NAME":"EARTH","MEAN_MOTION_DDOT":"0.0000000000000","DECAY_DATE":null,"BSTAR":"0.00016063000000","MEAN_ANOMALY":"308.4256","RCS_SIZE":"LARGE","EPOCH":"2023-01-10T08:53:38.253696","TLE_LINE2":"2 52992  53.2124 246.0736 0002441  51.6955 308.4256 15.08841982 28910","REF_FRAME":"TEME","MEAN_ELEMENT_THEORY":"SGP4","NORAD_CAT_ID":"52992","REV_AT_EPOCH":"2891","MEAN_MOTION":"15.08841982","EPHEMERIS_TYPE":"0","MEAN_MOTION_DOT":"0.00002269","SITE":"AFETR"},{"ELEMENT_SET_NO":"999","OBJECT_TYPE":"PAYLOAD","TIME_SYSTEM":"UTC","PERIOD":"95.437","GP_ID":"222665735","FILE":"3739038","PERIAPSIS":"537.423","OBJECT_ID":"2022-076H","SEMIMAJOR_AXIS":"6917.857","APOAPSIS":"542.022","OBJECT_NAME":"STARLINK-4264","TLE_LINE1":"1 52993U 22076H   23010.33837142  .00003279  00000-0  22400-3 0  9994","ARG_OF_PERICENTER":"23.1521","CLASSIFICATION_TYPE":"U","COUNTRY_CODE":"US","LAUNCH_DATE":"2022-07-07","TLE_LINE2":"2 52993  53.2143 236.2189 0003324  23.1521 336.9620 15.08847495 28577","REF_FRAME":"TEME","MEAN_ANOMALY":"336.9620","EPOCH":"2023-01-10T08:07:15.290688","RCS_SIZE":"LARGE","MEAN_MOTION_DOT":"0.00003279","EPHEMERIS_TYPE":"0","SITE":"AFETR","MEAN_MOTION":"15.08847495","REV_AT_EPOCH":"2857","NORAD_CAT_ID":"52993","MEAN_ELEMENT_THEORY":"SGP4","CENTER_NAME":"EARTH","MEAN_MOTION_DDOT":"0.0000000000000","RA_OF_ASC_NODE":"236.2189","INCLINATION":"53.2143","ECCENTRICITY":"0.00033240","BSTAR":"0.00022400000000","DECAY_DATE":null},{"DECAY_DATE":null,"BSTAR":"0.00006642400000","CENTER_NAME":"EARTH","MEAN_MOTION_DDOT":"0.0000000000000","INCLINATION":"53.2155","ECCENTRICITY":"0.00034540","RA_OF_ASC_NODE":"234.7485","MEAN_MOTION":"15.08839224","EPHEMERIS_TYPE":"0","MEAN_MOTION_DOT":"0.00000769","SITE":"AFETR","NORAD_CAT_ID":"52994","MEAN_ELEMENT_THEORY":"SGP4","REV_AT_EPOCH":"2862","MEAN_ANOMALY":"333.8677","RCS_SIZE":"LARGE","EPOCH":"2023-01-10T15:58:53.455872","TLE_LINE2":"2 52994  53.2155 234.7485 0003454  26.2490 333.8677 15.08839224 28621","REF_FRAME":"TEME","TLE_LINE1":"1 52994U 22076J   23010.66589648  .00000769  00000-0  66424-4 0  9992","ARG_OF_PERICENTER":"26.2490","COUNTRY_CODE":"US","CLASSIFICATION_TYPE":"U","LAUNCH_DATE":"2022-07-07","OBJECT_ID":"2022-076J","SEMIMAJOR_AXIS":"6917.883","OBJECT_NAME":"STARLINK-4256","APOAPSIS":"542.137","GP_ID":"222723466","PERIOD":"95.438","PERIAPSIS":"537.358","FILE":"3739267","ELEMENT_SET_NO":"999","OBJECT_TYPE":"PAYLOAD","TIME_SYSTEM":"UTC"}];
